     2.100          NAVIGATION                              RINEX VERSION / TYPE
fic2rin                                 03/01/2017 00:11:28 PGM / RUN BY / DATE
                                                            END OF HEADER
22 17  2 28  9 59 44.0  .877287238836D-04 -.117097442853D-10  .000000000000D+00
     .120000000000D+02 -.512500000000D+02  .520343102950D-08 -.149165098994D+00
    -.257417559624D-05  .744831003249D-02  .129379332066D-04  .515358730888D+04
     .208784000000D+06 -.558793544769D-07  .112082008460D+00  .242143869400D-07
     .923956687922D+00  .109343750000D+03 -.179883474327D+01 -.850785438628D-08
    -.251796202608D-09  .100000000000D+01  .193800000000D+04  .000000000000D+00
     .240000000000D+01  .000000000000D+00 -.176951289177D-07  .120000000000D+02
     .207906000000D+06  .400000000000D+01
16 17  2 28  9 59 44.0  .276081264019D-04  .102318153949D-11  .000000000000D+00
     .130000000000D+02  .937500000000D+00  .351050336941D-08  .134714612328D+01
     .169500708580D-06  .923293665983D-02  .135079026222D-04  .515366146088D+04
     .208784000000D+06 -.409781932831D-07 -.291194987241D+01  .894069671631D-07
     .990460984767D+00  .135875000000D+03  .402346034573D+00 -.756388649480D-08
    -.252510518077D-09  .100000000000D+01  .193800000000D+04  .000000000000D+00
     .240000000000D+01  .000000000000D+00 -.107102096081D-07  .130000000000D+02
     .208206000000D+06  .400000000000D+01
20 17  2 28  9 59 44.0  .462022610009D-03  .170530256582D-11  .000000000000D+00
     .250000000000D+02 -.725625000000D+02  .515235747351D-08 -.531504385874D+00
    -.366196036339D-05  .454580399673D-02  .118520110846D-04  .515364498138D+04
     .208784000000D+06 -.763684511185D-07  .606104281190D-01  .745058059692D-08
     .927286498668D+00  .133437500000D+03  .156354739216D+01 -.841249327125D-08
    -.257153568621D-09  .100000000000D+01  .193800000000D+04  .000000000000D+00
     .240000000000D+01  .000000000000D+00 -.838190317154D-08  .250000000000D+02
     .208626000000D+06  .400000000000D+01
 4 17  2 28 11 59 44.0 -.977888703346D-08  .341060513165D-12  .000000000000D+00
     .350000000000D+02 -.175000000000D+02  .485198781905D-08  .256155992933D+01
    -.894069671631D-06  .893205567263D-02  .129695981741D-04  .515373954201D+04
     .215984000000D+06  .186264514923D-07 -.296213633189D+01 -.113621354103D-06
     .982766483323D+00  .141843750000D+03  .874557171582D+00 -.749852662945D-08
    -.173221501085D-09  .100000000000D+01  .193800000000D+04  .000000000000D+00
     .240000000000D+01  .630000000000D+02 -.195577740669D-07  .350000000000D+02
     .208806000000D+06  .400000000000D+01
13 17  2 28 11 59 44.0 -.718021765351D-04 -.170530256582D-11  .000000000000D+00
     .280000000000D+02  .749375000000D+02  .463376444346D-08 -.290269986041D+00
     .402703881264D-05  .404654175509D-02  .745803117752D-05  .515368601036D+04
     .215984000000D+06  .204890966415D-07  .131638866711D+01 -.335276126862D-07
     .969690318808D+00  .238687500000D+03  .184559279278D+01 -.829248827256D-08
     .503235247482D-09  .100000000000D+01  .193800000000D+04  .000000000000D+00
     .240000000000D+01  .000000000000D+00 -.111758708954D-07  .280000000000D+02
     .208806000000D+06  .400000000000D+01
16 17  2 28 11 59 44.0  .276155769825D-04  .102318153949D-11  .000000000000D+00
     .140000000000D+02 -.887500000000D+01  .345014371233D-08  .239720810367D+01
    -.473111867905D-06  .923217053059D-02  .133253633976D-04  .515366386032D+04
     .215984000000D+06 -.134110450745D-06 -.291200459871D+01 -.391155481339D-07
     .990459811507D+00  .140500000000D+03  .402465117568D+00 -.745709633228D-08
    -.168935608275D-09  .100000000000D+01  .193800000000D+04  .000000000000D+00
     .240000000000D+01  .000000000000D+00 -.107102096081D-07  .140000000000D+02
     .208806000000D+06  .400000000000D+01
20 17  2 28 11 59 44.0  .462034717202D-03  .170530256582D-11  .000000000000D+00
     .260000000000D+02 -.805312500000D+02  .518664461600D-08  .518581391808D+00
    -.404939055443D-05  .454602029640D-02  .120904296637D-04  .515364538574D+04
     .215984000000D+06 -.577419996262D-07  .605501193212D-01 -.651925802231D-07
     .927284478378D+00  .131687500000D+03  .156366517023D+01 -.841785063727D-08
    -.310727228751D-09  .100000000000D+01  .193800000000D+04  .000000000000D+00
     .240000000000D+01  .000000000000D+00 -.838190317154D-08  .260000000000D+02
     .208806000000D+06  .400000000000D+01
22 17  2 28 11 59 44.0  .876449048519D-04 -.117097442853D-10  .000000000000D+00
     .240000000000D+02 -.507187500000D+02  .533807949529D-08  .901133063672D+00
    -.262446701527D-05  .744662387297D-02  .126603990793D-04  .515358402061D+04
     .215984000000D+06 -.104308128357D-06  .112020687323D+00  .149011611938D-07
     .923954897310D+00  .122062500000D+03 -.179889237347D+01 -.849071081504D-08
    -.236795577772D-09  .100000000000D+01  .193800000000D+04  .000000000000D+00
     .240000000000D+01  .000000000000D+00 -.176951289177D-07  .240000000000D+02
     .208806000000D+06  .400000000000D+01
23 17  2 28 11 59 44.0 -.206458847970D-03 -.909494701773D-12  .000000000000D+00
     .290000000000D+02  .879062500000D+02  .516235789007D-08  .168988269485D+00
     .466033816338D-05  .113068487262D-01  .743195414543D-05  .515378954697D+04
     .215984000000D+06  .447034835815D-07  .119407492768D+01  .189989805222D-06
     .944532003115D+00  .224718750000D+03 -.249796739391D+01 -.864928884903D-08
     .433946647048D-09  .100000000000D+01  .193800000000D+04  .000000000000D+00
     .240000000000D+01  .000000000000D+00 -.200234353542D-07  .290000000000D+02
     .208806000000D+06  .400000000000D+01
 1 17  2 28 12  0  0.0  .502695329487D-04  .909494701773D-12  .000000000000D+00
     .510000000000D+02 -.633750000000D+02  .493984862167D-08 -.704962308967D+00
    -.322423875332D-05  .626518425997D-02  .365823507309D-05  .515368625069D+04
     .216000000000D+06  .745058059692D-07 -.887250417290D+00  .447034835815D-07
     .966557830842D+00  .311406250000D+03  .538431090856D+00 -.853856995143D-08
    -.256796410887D-09  .100000000000D+01  .193800000000D+04  .000000000000D+00
     .240000000000D+01  .000000000000D+00  .512227416039D-08  .510000000000D+02
     .208806000000D+06  .400000000000D+01
 2 17  2 28 12  0  0.0  .467621721327D-03 -.693489710102D-11  .000000000000D+00
     .830000000000D+02 -.408437500000D+02  .560023327219D-08 -.319217449740D+00
    -.204145908356D-05  .166975753382D-01  .330246984959D-05  .515373250771D+04
     .216000000000D+06 -.113621354103D-06 -.938743752685D+00  .223517417908D-06
     .945412925569D+00  .312593750000D+03 -.201318754941D+01 -.910287917146D-08
    -.129648257513D-09  .100000000000D+01  .193800000000D+04  .000000000000D+00
     .240000000000D+01  .000000000000D+00 -.204890966415D-07  .830000000000D+02
     .208806000000D+06  .400000000000D+01
 3 17  2 28 12  0  0.0 -.107521656901D-03  .000000000000D+00  .000000000000D+00
     .710000000000D+02 -.438750000000D+02  .441232664826D-08 -.160901274728D+01
    -.222399830818D-05  .482212635688D-03  .130310654640D-04  .515379815674D+04
     .216000000000D+06  .465661287308D-07  .154679785205D+00  .167638063431D-07
     .960218298752D+00  .130187500000D+03  .369073074678D+00 -.792997317236D-08
    -.173221501085D-09  .100000000000D+01  .193800000000D+04  .000000000000D+00
     .240000000000D+01  .000000000000D+00  .186264514923D-08  .710000000000D+02
     .208806000000D+06  .400000000000D+01
 5 17  2 28 12  0  0.0 -.582486391068D-04  .204636307899D-11  .000000000000D+00
     .280000000000D+02 -.688437500000D+02  .469269546960D-08  .223549830513D+01
    -.351294875145D-05  .489844137337D-02  .131111592054D-04  .515370310020D+04
     .216000000000D+06 -.102445483208D-06  .139046350650D+00 -.558793544769D-07
     .947199616677D+00  .120906250000D+03  .555026364790D+00 -.805247827518D-08
    -.244295890190D-09  .100000000000D+01  .193800000000D+04  .000000000000D+00
     .240000000000D+01  .000000000000D+00 -.107102096081D-07  .280000000000D+02
     .208806000000D+06  .400000000000D+01
 6 17  2 28 12  0  0.0  .318432692438D-03  .500222085975D-11  .000000000000D+00
     .450000000000D+02 -.533437500000D+02  .497306429095D-08 -.424525247798D+00
    -.294297933578D-05  .710925436579D-03  .343285501003D-05  .515361979866D+04
     .216000000000D+06 -.223517417908D-07 -.895639197710D+00  .558793544769D-08
     .966338327299D+00  .316562500000D+03 -.132238619090D+01 -.853356974315D-08
    -.228580949885D-09  .100000000000D+01  .193800000000D+04  .000000000000D+00
     .240000000000D+01  .000000000000D+00  .419095158577D-08  .450000000000D+02
     .208806000000D+06  .400000000000D+01
 7 17  2 28 12  0  0.0  .378073658794D-03 -.386535248253D-11  .000000000000D+00
     .820000000000D+02 -.485000000000D+02  .483412993234D-08 -.131389244025D+01
    -.259838998318D-05  .101739920210D-01  .440329313278D-05  .515359518242D+04
     .216000000000D+06  .182539224625D-06  .227051993197D+01 -.143423676491D-06
     .963043373502D+00  .294437500000D+03 -.261476983671D+01 -.835070498324D-08
    -.398588031363D-09  .100000000000D+01  .193800000000D+04  .000000000000D+00
     .240000000000D+01  .000000000000D+00 -.111758708954D-07  .820000000000D+02
     .208806000000D+06  .400000000000D+01
 8 17  2 28 12  0  0.0 -.511328689754D-04 -.136424205266D-11  .000000000000D+00
     .113000000000D+03  .100437500000D+03  .448840124564D-08  .207087194534D+01
     .520423054695D-05  .254543242045D-02  .702962279320D-05  .515359514999D+04
     .216000000000D+06  .260770320892D-07 -.195024088354D+01  .521540641785D-07
     .965742254013D+00  .245562500000D+03 -.830709928209D+00 -.817284043161D-08
     .530736393015D-09  .100000000000D+01  .193800000000D+04  .000000000000D+00
     .240000000000D+01  .000000000000D+00  .465661287308D-08  .113000000000D+03
     .208806000000D+06  .400000000000D+01
